GLOBALSTAR M035         
1 25851U 99037A   26014.98474171 -.00000014  00000+0  18826-2 0  9995
2 25851  51.9975 302.6370 0013758 328.5791 114.3898 11.04541355119665
GLOBALSTAR M032         
1 25852U 99037B   26014.58144192 -.00000158  00000+0 -29414-2 0  9994
2 25852  51.9953 114.1474 0013269 161.3735 198.7552 11.19072844158452
GLOBALSTAR M051         
1 25853U 99037C   26014.92284807 -.00000078  00000+0 -14968-3 0  9991
2 25853  51.9775 250.1070 0001020  68.8527 291.2392 11.42199641156584
GLOBALSTAR M030         
1 25854U 99037D   26014.74686387 -.00000123  00000+0 -10154-2 0  9994
2 25854  51.9893  43.1788 0003422  67.9666 292.1514 11.55111452174498
GLOBALSTAR M048         
1 25872U 99041A   26014.79012919 -.00000055  00000+0  40489-3 0  9996
2 25872  51.9337 193.6388 0013143 185.3460 273.3017 11.33861871148983
GLOBALSTAR M026         
1 25873U 99041B   26014.37152133 -.00000084  00000+0 -71552-3 0  9992
2 25873  52.0023  59.7313 0001721 248.3686 123.8886 11.06843310171872
GLOBALSTAR M043         
1 25874U 99041C   26014.96187720 -.00000111  00000+0 -12708-2 0  9996
2 25874  51.9427 309.3144 0013474 315.4875 121.0874 11.25696688146727
GLOBALSTAR M028         
1 25875U 99041D   26014.95116610 -.00000074  00000+0  16774-3 0  9991
2 25875  51.9630 281.6169 0063055 170.7700 189.4334 12.50594025216674
